OBJECT_NAME,OBJECT_ID,EPOCH,MEAN_MOTION,ECCENTRICITY,INCLINATION,RA_OF_ASC_NODE,ARG_OF_PERICENTER,MEAN_ANOMALY,EPHEMERIS_TYPE,CLASSIFICATION_TYPE,NORAD_CAT_ID,ELEMENT_SET_NO,REV_AT_EPOCH,BSTAR,MEAN_MOTION_DOT,MEAN_MOTION_DDOT
TYVAK-0173,2021-059P,2026-07-03T22:38:35.526336,14.81945589,.00082444,96.0079,257.1351,344.3860,15.7102,0,U,48892,999,27072,.2547797E-3,.1987E-4,0
MANDRAKE 2 ABLE,2021-059AE,2026-07-04T19:15:27.657216,15.55727126,.00035413,97.7032,16.9381,285.1127,74.9735,0,U,48907,999,27986,.58526131E-3,.4034E-3,0
MANDRAKE 2 BAKER,2021-059AF,2026-07-04T19:25:47.455392,15.60518867,.00022259,97.6998,19.9426,273.9292,86.1709,0,U,48908,999,28004,.60574874E-3,.50017E-3,0
PACE-1,2021-059AG,2026-07-04T07:15:58.435488,15.83115421,.00028437,97.6743,25.4145,209.7722,150.3385,0,U,48909,999,28050,.66667527E-3,.144258E-2,0
YAM-3,2021-059AN,2026-07-04T18:29:34.560096,15.48964067,.00037485,97.6991,13.8791,296.5132,63.5733,0,U,48915,999,27971,.40191028E-3,.21655E-3,0
FARADAY_PHOENIX,2021-059AX,2026-07-04T19:29:23.082144,15.83873815,.00051905,97.6784,25.8686,228.7670,131.3152,0,U,48924,999,28044,.12259759E-2,.279416E-2,0
DEMO8 (TENZING),2021-059CA,2026-07-04T19:19:51.488256,15.55699372,.00053962,97.7016,20.5736,278.5753,81.4889,0,U,48951,999,28004,.53357176E-3,.36726E-3,0
NAPA-2,2021-059CN,2026-07-04T12:35:42.719136,16.35251072,.00098306,97.6422,27.5145,257.2376,102.7822,0,U,48963,999,28060,.73506549E-3,.5428234E-1,.2677097E-5
FENGYUN 3E,2021-062A,2026-07-04T23:01:28.213248,14.19904719,.00026138,98.7494,189.1692,56.9325,303.2102,0,U,49008,999,25910,-.15021944E-3,-.363E-5,0
ISS (NAUKA),2021-066A,2026-07-04T19:09:56.682144,15.48894567,.00067612,51.6303,212.9192,256.1012,103.9224,0,U,49044,999,60919,.18504104E-3,.9725E-4,0
STARLINK-3100,2021-082Q,2026-07-04T17:33:35.976096,14.98333258,.000302,70.0002,359.3421,269.3686,90.7127,0,U,49144,999,26351,.42304077E-4,.412E-5,0
CUTE,2021-088D,2026-07-03T17:37:56.610336,16.01460563,.00031582,97.4093,285.7161,220.5437,139.5607,0,U,49263,999,26519,.62437535E-3,.343331E-2,.5276501E-4
2021-091B,2021-091B,2026-07-04T23:35:06.378144,15.18649391,.00128943,97.4476,13.2866,346.0631,14.0246,0,U,49316,999,26168,.31672484E-3,.6507E-4,0
SDGSAT 1,2021-100A,2026-07-04T22:46:32.747232,15.19198895,.00087211,97.2614,232.2200,199.5015,160.5888,0,U,49387,999,25861,.20580702E-3,.4269E-4,0
TEIKYOSAT-4 (OORURI),2021-102B,2026-07-04T19:39:57.379968,15.09574379,.00107668,97.3663,214.6174,226.7637,133.2695,0,U,49396,999,25538,.17130976E-3,.2693E-4,0
Z-SAT,2021-102E,2026-07-04T22:13:45.554880,15.18402158,.00165616,97.3312,220.7109,179.1312,180.9954,0,U,49399,999,25613,.3278473E-3,.6701E-4,0
HIBARI,2021-102F,2026-07-04T09:09:08.880192,15.32094710,.00130086,97.3221,231.0908,134.8610,225.3691,0,U,49400,999,25682,.49424695E-3,.15291E-3,0
KOSEN-1,2021-102H,2026-07-04T09:02:23.395488,15.27086347,.00149105,97.3168,227.2010,141.9491,218.2805,0,U,49402,999,25664,.40342819E-3,.10685E-3,0
GLOBAL-14,2021-106A,2026-07-04T09:47:31.951680,15.51396540,.00156714,42.0025,188.6752,148.8673,211.3103,0,U,49469,999,26080,.55788254E-3,.33714E-3,0
GAOFEN-3 02,2021-109A,2026-07-04T22:45:41.959584,14.42218527,.00016697,98.4086,193.7926,321.2833,38.8236,0,U,49495,999,24287,-.45103088E-4,-.192E-5,0
GLOBAL-12,2021-115BA,2026-07-04T08:56:34.933056,15.54710995,.00026322,53.1966,321.8447,70.8826,289.2471,0,U,49772,999,25857,.73085589E-3,.49181E-3,0
GLOBAL-13,2021-115BB,2026-07-04T19:53:12.059520,15.46783663,.00018003,53.1980,330.6842,146.5939,213.5184,0,U,49773,999,25849,.72825924E-3,.36828E-3,0
GLOBAL-17,2021-120A,2026-07-04T17:06:50.025600,15.53254950,.00144694,41.9952,304.7923,11.5785,348.5390,0,U,49949,999,25762,.82607462E-3,.53667E-3,0
GLOBAL-16,2021-120B,2026-07-04T16:28:05.363616,15.51072693,.00127515,41.9960,309.0182,1.1095,358.9775,0,U,49950,999,25756,.79787207E-3,.478E-3,0
XW-3 (CAS-9),2021-131B,2026-07-04T23:09:06.958368,14.41373749,.00051246,98.4988,278.2586,56.0746,304.0929,0,U,50466,999,23767,.14996288E-3,.442E-5,0
ION SCV-004,2022-002K,2026-07-04T10:18:18.472608,15.30624572,.00056228,97.2818,242.7651,297.2767,62.7901,0,U,50993,999,24793,.24106188E-3,.7064E-4,0
ETV-A1,2022-002CE,2026-07-04T22:30:05.221152,15.41068967,.00033555,97.2864,252.1952,278.2358,81.8508,0,U,51060,999,24857,.44491549E-3,.18327E-3,0
BRO-5,2022-002CF,2026-07-04T23:09:05.311584,15.48414955,.00042891,97.2982,259.8021,243.4938,116.5874,0,U,51061,999,24900,.94070594E-3,.50042E-3,0
LUDI TANCE 1-01A (L-SAR 01A),2022-007A,2026-07-04T23:54:37.797120,14.88410826,.00016013,97.8101,193.1630,91.2799,268.8602,0,U,51284,999,24112,.8451694E-4,.729E-5,0
LUDI TANCE 1-01B (L-SAR 01B),2022-018A,2026-07-04T23:06:12.142656,14.88421885,.0001612,97.8106,193.1274,91.2171,268.9231,0,U,51822,999,23635,.912253E-4,.791E-5,0
