TYVAK-0173              
1 48892U 21059P   26184.94346674  .00001987  00000+0  25478-3 0  9995
2 48892  96.0079 257.1351 0008244 344.3860  15.7102 14.81945589270722
MANDRAKE 2 ABLE         
1 48907U 21059AE  26185.80240344  .00040340  00000+0  58526-3 0  9991
2 48907  97.7032  16.9381 0003541 285.1127  74.9735 15.55727126279863
MANDRAKE 2 BAKER        
1 48908U 21059AF  26185.80957703  .00050017  00000+0  60575-3 0  9995
2 48908  97.6998  19.9426 0002225 273.9292  86.1709 15.60518867280047
PACE-1                  
1 48909U 21059AG  26185.30275967  .00144258  00000+0  66668-3 0  9996
2 48909  97.6743  25.4145 0002843 209.7722 150.3385 15.83115421280506
YAM-3                   
1 48915U 21059AN  26185.77053889  .00021655  00000+0  40191-3 0  9999
2 48915  97.6991  13.8791 0003748 296.5132  63.5733 15.48964067279712
FARADAY_PHOENIX         
1 48924U 21059AX  26185.81207271  .00279416  00000+0  12260-2 0  9995
2 48924  97.6784  25.8686 0005190 228.7670 131.3152 15.83873815280445
DEMO8 (TENZING)         
1 48951U 21059CA  26185.80545704  .00036726  00000+0  53357-3 0  9998
2 48951  97.7016  20.5736 0005396 278.5753  81.4889 15.55699372280046
NAPA-2                  
1 48963U 21059CN  26185.52479999  .05428234  26771-5  73507-3 0  9994
2 48963  97.6422  27.5145 0009830 257.2376 102.7822 16.35251072280608
FENGYUN 3E              
1 49008U 21062A   26185.95935432 -.00000363  00000+0 -15022-3 0  9990
2 49008  98.7494 189.1692 0002613  56.9325 303.2102 14.19904719259105
ISS (NAUKA)             
1 49044U 21066A   26185.79857271  .00009725  00000+0  18504-3 0  9997
2 49044  51.6303 212.9192 0006761 256.1012 103.9224 15.48894567609197
STARLINK-3100           
1 49144U 21082Q   26185.73166639  .00000412  00000+0  42304-4 0  9991
2 49144  70.0002 359.3421 0003020 269.3686  90.7127 14.98333258263514
CUTE                    
1 49263U 21088D   26184.73468299  .00343331  52765-4  62438-3 0  9994
2 49263  97.4093 285.7161 0003158 220.5437 139.5607 16.01460563265194
2021-091B               
1 49316U 21091B   26185.98271271  .00006507  00000+0  31672-3 0  9994
2 49316  97.4476  13.2866 0012894 346.0631  14.0246 15.18649391261682
SDGSAT 1                
1 49387U 21100A   26185.94899013  .00004269  00000+0  20581-3 0  9999
2 49387  97.2614 232.2200 0008721 199.5015 160.5888 15.19198895258615
TEIKYOSAT-4 (OORURI)    
1 49396U 21102B   26185.81941412  .00002693  00000+0  17131-3 0  9994
2 49396  97.3663 214.6174 0010766 226.7637 133.2695 15.09574379255387
Z-SAT                   
1 49399U 21102E   26185.92622170  .00006701  00000+0  32785-3 0  9992
2 49399  97.3312 220.7109 0016561 179.1312 180.9954 15.18402158256133
HIBARI                  
1 49400U 21102F   26185.38135278  .00015291  00000+0  49425-3 0  9996
2 49400  97.3221 231.0908 0013008 134.8610 225.3691 15.32094710256824
KOSEN-1                 
1 49402U 21102H   26185.37665967  .00010685  00000+0  40343-3 0  9992
2 49402  97.3168 227.2010 0014910 141.9491 218.2805 15.27086347256645
GLOBAL-14               
1 49469U 21106A   26185.40800870  .00033714  00000+0  55788-3 0  9994
2 49469  42.0025 188.6752 0015671 148.8673 211.3103 15.51396540260807
GAOFEN-3 02             
1 49495U 21109A   26185.94840231 -.00000192  00000+0 -45103-4 0  9997
2 49495  98.4086 193.7926 0001669 321.2833  38.8236 14.42218527242878
GLOBAL-12               
1 49772U 21115BA  26185.37262654  .00049181  00000+0  73086-3 0  9995
2 49772  53.1966 321.8447 0002632  70.8826 289.2471 15.54710995258570
GLOBAL-13               
1 49773U 21115BB  26185.82861180  .00036828  00000+0  72826-3 0  9990
2 49773  53.1980 330.6842 0001800 146.5939 213.5184 15.46783663258491
GLOBAL-17               
1 49949U 21120A   26185.71307900  .00053667  00000+0  82607-3 0  9992
2 49949  41.9952 304.7923 0014469  11.5785 348.5390 15.53254950257629
GLOBAL-16               
1 49950U 21120B   26185.68617319  .00047800  00000+0  79787-3 0  9995
2 49950  41.9960 309.0182 0012751   1.1095 358.9775 15.51072693257561
XW-3 (CAS-9)            
1 50466U 21131B   26185.96466387  .00000442  00000+0  14996-3 0  9991
2 50466  98.4988 278.2586 0005124  56.0746 304.0929 14.41373749237672
ION SCV-004             
1 50993U 22002K   26185.42938047  .00007064  00000+0  24106-3 0  9993
2 50993  97.2818 242.7651 0005622 297.2767  62.7901 15.30624572247930
ETV-A1                  
1 51060U 22002CE  26185.93756043  .00018327  00000+0  44492-3 0  9993
2 51060  97.2864 252.1952 0003355 278.2358  81.8508 15.41068967248570
BRO-5                   
1 51061U 22002CF  26185.96464481  .00050042  00000+0  94071-3 0  9997
2 51061  97.2982 259.8021 0004289 243.4938 116.5874 15.48414955249008
LUDI TANCE 1-01A (L-SA*)
1 51284U 22007A   26185.99627080  .00000729  00000+0  84517-4 0  9990
2 51284  97.8101 193.1630 0001601  91.2799 268.8602 14.88410826241120
LUDI TANCE 1-01B (L-SA*)
1 51822U 22018A   26185.96264054  .00000791  00000+0  91225-4 0  9998
2 51822  97.8106 193.1274 0001612  91.2171 268.9231 14.88421885236358
